{
  "norad_id": 56041,
  "name": "STARLINK-5800",
  "history": [
    {
      "epoch": "2026-03-28T20:00:01.999872Z",
      "apogee_km": 519.6274268095203,
      "perigee_km": 517.0242879393754,
      "latitude_deg": -21.116339701239653,
      "longitude_deg": 3.277987101903246,
      "height_km": 522.3906346817863,
      "semi_major_axis_km": 6896.462857374448,
      "eccentricity": 0.00018873,
      "inclination_deg": 42.9996,
      "raan_deg": 285.2119,
      "arg_perigee_deg": 267.063,
      "mean_anomaly_deg": 304.5884,
      "mean_motion_rev_day": 15.15874194
    },
    {
      "epoch": "2026-03-29T04:00:01.999584Z",
      "apogee_km": 517.3907730082228,
      "perigee_km": 514.8095706110962,
      "latitude_deg": -33.28596176215021,
      "longitude_deg": -98.7844306519314,
      "height_km": 524.3219088092574,
      "semi_major_axis_km": 6894.237171809659,
      "eccentricity": 0.0001872,
      "inclination_deg": 42.9998,
      "raan_deg": 283.3596,
      "arg_perigee_deg": 265.1776,
      "mean_anomaly_deg": 328.0568,
      "mean_motion_rev_day": 15.16608314
    },
    {
      "epoch": "2026-03-30T04:00:01.999584Z",
      "apogee_km": 512.147600676094,
      "perigee_km": 509.268063536274,
      "latitude_deg": -34.97052737707419,
      "longitude_deg": -18.01936732339734,
      "height_km": 519.2635530387973,
      "semi_major_axis_km": 6888.844832106184,
      "eccentricity": 0.000209,
      "inclination_deg": 42.9995,
      "raan_deg": 277.7918,
      "arg_perigee_deg": 300.079,
      "mean_anomaly_deg": 3.1212,
      "mean_motion_rev_day": 15.18389382
    },
    {
      "epoch": "2026-03-30T06:00:02.000160Z",
      "apogee_km": 510.99680506421555,
      "perigee_km": 508.9986949359345,
      "latitude_deg": 25.734801264782405,
      "longitude_deg": 30.60949339418699,
      "height_km": 510.45182781392356,
      "semi_major_axis_km": 6888.134750000075,
      "eccentricity": 0.00014504,
      "inclination_deg": 42.9987,
      "raan_deg": 277.3266,
      "arg_perigee_deg": 279.489,
      "mean_anomaly_deg": 119.8836,
      "mean_motion_rev_day": 15.18624179
    },
    {
      "epoch": "2026-03-30T14:00:03.000384Z",
      "apogee_km": 508.6988467343581,
      "perigee_km": 507.03381112942225,
      "latitude_deg": 38.2043283004523,
      "longitude_deg": -65.44090884976119,
      "height_km": 510.7372915439647,
      "semi_major_axis_km": 6886.00332893189,
      "eccentricity": 0.0001209,
      "inclination_deg": 42.9992,
      "raan_deg": 275.4701,
      "arg_perigee_deg": 266.3801,
      "mean_anomaly_deg": 158.2992,
      "mean_motion_rev_day": 15.19329322
    },
    {
      "epoch": "2026-03-30T22:00:00.999936Z",
      "apogee_km": 506.8637812488905,
      "perigee_km": 504.9937936183933,
      "latitude_deg": 43.153863194888615,
      "longitude_deg": -153.80314362671209,
      "height_km": 510.0063801961483,
      "semi_major_axis_km": 6884.065787433642,
      "eccentricity": 0.00013582,
      "inclination_deg": 42.9995,
      "raan_deg": 273.6089,
      "arg_perigee_deg": 260.7799,
      "mean_anomaly_deg": 189.8757,
      "mean_motion_rev_day": 15.19970797
    },
    {
      "epoch": "2026-03-31T20:00:01.999008Z",
      "apogee_km": 500.2768663405268,
      "perigee_km": 498.20402477843527,
      "latitude_deg": 41.742161078229834,
      "longitude_deg": -148.63566764661613,
      "height_km": 503.08847530258805,
      "semi_major_axis_km": 6877.37744555948,
      "eccentricity": 0.0001507,
      "inclination_deg": 43.0015,
      "raan_deg": 268.4882,
      "arg_perigee_deg": 271.3496,
      "mean_anomaly_deg": 165.3615,
      "mean_motion_rev_day": 15.22188624
    },
    {
      "epoch": "2026-04-01T20:00:01.999008Z",
      "apogee_km": 495.2097864999787,
      "perigee_km": 492.76605887747064,
      "latitude_deg": 8.945037273234691,
      "longitude_deg": -56.98945561754563,
      "height_km": 492.7349952527285,
      "semi_major_axis_km": 6872.124922688725,
      "eccentricity": 0.0001778,
      "inclination_deg": 42.9998,
      "raan_deg": 262.8731,
      "arg_perigee_deg": 242.1391,
      "mean_anomaly_deg": 284.6969,
      "mean_motion_rev_day": 15.23934123
    },
    {
      "epoch": "2026-04-02T20:00:01.999008Z",
      "apogee_km": 489.19700662653304,
      "perigee_km": 487.10553521920974,
      "latitude_deg": -42.86880395901666,
      "longitude_deg": 27.874643285888087,
      "height_km": 500.37838135936914,
      "semi_major_axis_km": 6866.288270922871,
      "eccentricity": 0.0001523,
      "inclination_deg": 43.0039,
      "raan_deg": 257.2509,
      "arg_perigee_deg": 280.2541,
      "mean_anomaly_deg": 343.7297,
      "mean_motion_rev_day": 15.25877654
    },
    {
      "epoch": "2026-04-02T22:00:01.999584Z",
      "apogee_km": 489.1837663862225,
      "perigee_km": 487.15559671862593,
      "latitude_deg": 1.5266789148143327,
      "longitude_deg": 97.14347431565123,
      "height_km": 487.55747009347124,
      "semi_major_axis_km": 6866.306681552424,
      "eccentricity": 0.00014769,
      "inclination_deg": 43.0041,
      "raan_deg": 256.7818,
      "arg_perigee_deg": 283.8561,
      "mean_anomaly_deg": 78.4377,
      "mean_motion_rev_day": 15.25871517
    },
    {
      "epoch": "2026-04-03T20:00:01.999008Z",
      "apogee_km": 489.14675397961764,
      "perigee_km": 487.1472920721135,
      "latitude_deg": 2.4648688945836685,
      "longitude_deg": 122.07990110695991,
      "height_km": 487.5560375426891,
      "semi_major_axis_km": 6866.284023025865,
      "eccentricity": 0.0001456,
      "inclination_deg": 43.0008,
      "raan_deg": 251.6191,
      "arg_perigee_deg": 278.2877,
      "mean_anomaly_deg": 85.3745,
      "mean_motion_rev_day": 15.2587907
    },
    {
      "epoch": "2026-04-04T20:00:01.999008Z",
      "apogee_km": 489.3095906309736,
      "perigee_km": 487.1782659908258,
      "latitude_deg": 41.74184238264829,
      "longitude_deg": -139.25932553119267,
      "height_km": 492.15062283813825,
      "semi_major_axis_km": 6866.380928310899,
      "eccentricity": 0.0001552,
      "inclination_deg": 43.0011,
      "raan_deg": 245.9853,
      "arg_perigee_deg": 280.2843,
      "mean_anomaly_deg": 183.0019,
      "mean_motion_rev_day": 15.25846768
    },
    {
      "epoch": "2026-04-05T14:00:03.000384Z",
      "apogee_km": 489.14897937419937,
      "perigee_km": 486.91527723337913,
      "latitude_deg": -43.12875567801506,
      "longitude_deg": 105.2307393506831,
      "height_km": 500.2574333600723,
      "semi_major_axis_km": 6866.169128303789,
      "eccentricity": 0.00016266,
      "inclination_deg": 43.0009,
      "raan_deg": 241.7604,
      "arg_perigee_deg": 273.1702,
      "mean_anomaly_deg": 354.9035,
      "mean_motion_rev_day": 15.2591737
    },
    {
      "epoch": "2026-04-05T20:00:03.000384Z",
      "apogee_km": 489.31947851237237,
      "perigee_km": 486.9396305245764,
      "latitude_deg": -15.592029280449543,
      "longitude_deg": -56.480912409806066,
      "height_km": 490.932915284963,
      "semi_major_axis_km": 6866.266554518475,
      "eccentricity": 0.0001733,
      "inclination_deg": 43.0013,
      "raan_deg": 240.3523,
      "arg_perigee_deg": 279.6054,
      "mean_anomaly_deg": 283.411,
      "mean_motion_rev_day": 15.25884893
    },
    {
      "epoch": "2026-04-06T00:00:02.000160Z",
      "apogee_km": 489.20146497400856,
      "perigee_km": 486.7833515190114,
      "latitude_deg": 25.850260971973967,
      "longitude_deg": 76.21570904128818,
      "height_km": 488.6018942000665,
      "semi_major_axis_km": 6866.129408246509,
      "eccentricity": 0.00017609,
      "inclination_deg": 43.0011,
      "raan_deg": 239.4121,
      "arg_perigee_deg": 277.5777,
      "mean_anomaly_deg": 121.9863,
      "mean_motion_rev_day": 15.25930611
    },
    {
      "epoch": "2026-04-07T10:23:22.286112Z",
      "apogee_km": 489.19319710275704,
      "perigee_km": 486.79334725002536,
      "latitude_deg": 1.9303431000912794e-05,
      "longitude_deg": -120.21340810058689,
      "height_km": 487.6508953112408,
      "semi_major_axis_km": 6866.130272176391,
      "eccentricity": 0.00017476,
      "inclination_deg": 43.0013,
      "raan_deg": 231.3393,
      "arg_perigee_deg": 275.7239,
      "mean_anomaly_deg": 84.3413,
      "mean_motion_rev_day": 15.25930323
    },
    {
      "epoch": "2026-04-07T16:40:24.473280Z",
      "apogee_km": 489.68617086770155,
      "perigee_km": 486.3217617941982,
      "latitude_deg": -2.13518465752124e-05,
      "longitude_deg": 143.7968622972374,
      "height_km": 487.2933516368475,
      "semi_major_axis_km": 6866.14096633095,
      "eccentricity": 0.000245,
      "inclination_deg": 43.0038,
      "raan_deg": 229.8668,
      "arg_perigee_deg": 286.8884,
      "mean_anomaly_deg": 73.1698,
      "mean_motion_rev_day": 15.25926758
    },
    {
      "epoch": "2026-04-08T09:57:16.380288Z",
      "apogee_km": 489.15463423175606,
      "perigee_km": 486.92065564927816,
      "latitude_deg": -9.590163479948842e-06,
      "longitude_deg": -120.18711549162961,
      "height_km": 487.6704020459898,
      "semi_major_axis_km": 6866.174644940516,
      "eccentricity": 0.00016268,
      "inclination_deg": 43.0025,
      "raan_deg": 225.8088,
      "arg_perigee_deg": 277.4372,
      "mean_anomaly_deg": 82.6294,
      "mean_motion_rev_day": 15.25915531
    },
    {
      "epoch": "2026-04-09T14:13:56.214336Z",
      "apogee_km": 489.10653567895315,
      "perigee_km": 487.0095997052804,
      "latitude_deg": -2.2330902767734895e-06,
      "longitude_deg": 167.84748844732587,
      "height_km": 487.84012367552015,
      "semi_major_axis_km": 6866.195067692117,
      "eccentricity": 0.0001527,
      "inclination_deg": 43.0023,
      "raan_deg": 219.1707,
      "arg_perigee_deg": 269.7361,
      "mean_anomaly_deg": 90.3315,
      "mean_motion_rev_day": 15.25908723
    }
  ]
}